STARLINK-37577          
1 69452U 26127K   26188.19195263  .00149876  00000+0  96441-3 0  9996
2 69452  53.1608 162.5686 0001593  53.1091 307.0076 15.75244638  4565
STARLINK-37500          
1 69453U 26127L   26188.39169380  .00186730  00000+0  11949-2 0  9999
2 69453  53.1563 161.6823 0001117 100.1671 259.9476 15.75251591  4596
STARLINK-37575          
1 69454U 26127M   26188.44152333  .00208974  00000+0  13328-2 0  9994
2 69454  53.1597 161.2784 0001150 135.7413 224.3699 15.75259275  4603
STARLINK-37642          
1 69455U 26127N   26188.52312286  .00185243  00000+0  11860-2 0  9991
2 69455  53.1570 161.0831 0000469  93.0801 267.0272 15.75245465  4613
STARLINK-37513          
1 69456U 26127P   26188.41672454 -.00081914  00000+0 -53459-3 0  9999
2 69456  53.1587 160.9747 0000859  68.0255 359.2627 15.75272723  5902
STARLINK-37563          
1 69457U 26127Q   26188.31917773  .00262669  00000+0  16598-2 0  9993
2 69457  53.1593 161.9384 0002905  53.1462 306.9824 15.75309880  4583
STARLINK-37565          
1 69458U 26127R   26188.43665682  .00225049  00000+0  14325-2 0  9993
2 69458  53.1583 161.2436 0001175 113.5059 246.6085 15.75255687  4602
STARLINK-37498          
1 69459U 26127S   26188.45481093  .00205146  00000+0  13091-2 0  9993
2 69459  53.1569 161.3641 0001023  92.1902 267.9235 15.75258177  4607
STARLINK-37384          
1 69460U 26127T   26188.31430735  .00211023  00000+0  13433-2 0  9998
2 69460  53.1595 161.9053 0001728  66.9437 293.1765 15.75296523  4588
STARLINK-37707          
1 69461U 26127U   26188.31009397  .00141600  00000+0  91122-3 0  9990
2 69461  53.1592 161.8759 0001354  75.4847 284.6323 15.75271174  4583
STARLINK-37525          
1 69462U 26127V   26188.49556245  .00149131  00000+0  95931-3 0  9998
2 69462  53.1573 160.8983 0001012 127.4464 232.6648 15.75254531  4610
STARLINK-37526          
1 69463U 26127W   26188.30101840  .00247515  00000+0  15675-2 0  9997
2 69463  53.1569 161.8133 0001639  68.8314 291.2881 15.75304662  4588
STARLINK-37574          
1 69464U 26127X   26188.49589208  .00135606  00000+0  87253-3 0  9995
2 69464  53.1574 160.8984 0001651  55.6685 304.4491 15.75294861  4614
STARLINK-37535          
1 69465U 26127Y   26187.98345802  .00143316  00000+0  92244-3 0  9992
2 69465  53.1566 163.3879 0001517  52.9413 307.1745 15.75260762  4533
STARLINK-37583          
1 69466U 26127Z   26188.52756620  .00137878  00000+0  88781-3 0  9995
2 69466  53.1585 160.3716 0001118  87.1389 272.9759 15.75270234  4620
STARLINK-37546          
1 69467U 26127AA  26188.48681352  .00076004  00000+0  49509-3 0  9998
2 69467  53.1562 160.8359 0000842 107.0907 253.0206 15.75259490  4612
STARLINK-37532          
1 69468U 26127AB  26188.38705828  .00206077  00000+0  13153-2 0  9993
2 69468  53.1596 160.9095 0001163  99.3883 260.7268 15.75251754  4608
STARLINK-37708          
1 69469U 26127AC  26187.53478954  .00185050  00000+0  11817-2 0  9999
2 69469  53.1572 165.5606 0000871 120.5281 239.5825 15.75304051  4462
STARLINK-37686          
1 69470U 26127AD  26188.54572676  .00236397  00000+0  14894-2 0  9998
2 69470  53.1579 160.4890 0001534  24.0535 336.0557 15.75456831  4624
STARLINK-37451          
1 69471U 26127AE  26188.29684171  .00140314  00000+0  70135-3 0  9999
2 69471  53.1578 161.0455 0001240  69.4775 290.6380 15.80922130  4592
DTC TEST OBJECT A       
1 69472U 26128A   26188.47443690  .00008209  00000+0  13439-3 0  9990
2 69472  55.0005 211.3867 0010770 350.9926   9.0914 15.53443666  4383
DTC TEST OBJECT B       
1 69473U 26128B   26178.37654890  .00024134  00000+0  33565-3 0  9992
2 69473  55.0021 257.9040 0009934 325.3113  34.7274 15.56860342  2801
TJS-25                  
1 69474U 26129A   26188.38266727 -.00000355  00000+0  00000+0 0  9998
2 69474   5.9625 330.2964 0002932 282.9971 290.0234  1.00267530   262
STARLINK-37816          
1 69478U 26131A   26188.41672454 -.02278495  00000+0 -18422-1 0  9991
2 69478  97.2846 209.8599 0001906  90.6789  93.3932 15.74120000  5261
STARLINK-37878          
1 69479U 26131B   26188.00744803  .00210067  00000+0  10669-2 0  9998
2 69479  97.2849 209.4220 0000545  94.7426 265.3905 15.80904747  5292
STARLINK-37817          
1 69480U 26131C   26188.00032920  .00321772  00000+0  16094-2 0  9994
2 69480  97.2843 209.4321 0001058 136.5615 223.5737 15.80951429  5293
STARLINK-37727          
1 69481U 26131D   26188.41672454 -.02325653  00000+0 -19063-1 0  9996
2 69481  97.2848 209.8653 0001915  99.3135  96.7624 15.73879353  5265
STARLINK-37814          
1 69482U 26131E   26188.44203300  .00174819  00000+0  90307-3 0  9994
2 69482  97.2861 209.9033 0002536 265.1305  94.9674 15.80622991  5364
STARLINK-37869          
1 69483U 26131F   26188.41672454 -.02223753  00000+0 -15909-1 0  9991
2 69483  97.2846 209.8746 0001890  96.7549 118.8836 15.76816619  5260
STARLINK-37873          
1 69484U 26131G   26188.41672454 -.02352368  00000+0 -16170-1 0  9998
2 69484  97.2845 209.8777 0001810 103.9495 118.4962 15.77906171  5267
